start=new Date('2022-02-26T00:00:00.000Z').valueOf();
sats=[{"CENTER_NAME":"EARTH","OBJECT_ID":"2021-082K","EPOCH":"2022-02-25T22:00:00.999936","GP_ID":"197034816","REV_AT_EPOCH":"369","EPHEMERIS_TYPE":"0","COUNTRY_CODE":"US","BSTAR":"0.00038020000000","OBJECT_TYPE":"PAYLOAD","MEAN_ELEMENT_THEORY":"SGP4","MEAN_MOTION":"15.69705484","REF_FRAME":"TEME","ECCENTRICITY":"0.00036910","OBJECT_NAME":"STARLINK-3057","NORAD_CAT_ID":"49139","RA_OF_ASC_NODE":"23.6626","LAUNCH_DATE":"2021-09-14","MEAN_MOTION_DDOT":"0.0000000000000","RCS_SIZE":"LARGE","SEMIMAJOR_AXIS":"6737.877","INCLINATION":"70.0000","MEAN_MOTION_DOT":"0.00045341","ELEMENT_SET_NO":"999","APOAPSIS":"362.229","FILE":"3323947","TIME_SYSTEM":"UTC","TLE_LINE2":"2 49139  70.0000  23.6626 0003691 276.0618  93.4197 15.69705484  3699","PERIAPSIS":"357.255","TLE_LINE1":"1 49139U 21082K   22056.91667824  .00045341  00000-0  38020-3 0  9990","PERIOD":"91.737","CLASSIFICATION_TYPE":"U","SITE":"AFWTR","DECAY_DATE":null,"ARG_OF_PERICENTER":"276.0618","MEAN_ANOMALY":"93.4197"},{"CENTER_NAME":"EARTH","EPOCH":"2022-02-25T22:00:00.999936","OBJECT_ID":"2021-082L","GP_ID":"197034572","EPHEMERIS_TYPE":"0","COUNTRY_CODE":"US","REV_AT_EPOCH":"369","OBJECT_TYPE":"PAYLOAD","MEAN_ELEMENT_THEORY":"SGP4","BSTAR":"0.00038747000000","MEAN_MOTION":"15.69720387","REF_FRAME":"TEME","ECCENTRICITY":"0.00036570","OBJECT_NAME":"STARLINK-3118","NORAD_CAT_ID":"49140","RA_OF_ASC_NODE":"23.6562","LAUNCH_DATE":"2021-09-14","MEAN_MOTION_DDOT":"0.0000000000000","MEAN_MOTION_DOT":"0.00046245","INCLINATION":"70.0015","RCS_SIZE":"LARGE","SEMIMAJOR_AXIS":"6737.834","ELEMENT_SET_NO":"999","APOAPSIS":"362.163","FILE":"3323947","TIME_SYSTEM":"UTC","TLE_LINE2":"2 49140  70.0015  23.6562 0003657 279.1185  96.7284 15.69720387  3693","PERIAPSIS":"357.235","TLE_LINE1":"1 49140U 21082L   22056.91667824  .00046245  00000-0  38747-3 0  9992","PERIOD":"91.736","SITE":"AFWTR","CLASSIFICATION_TYPE":"U","DECAY_DATE":null,"ARG_OF_PERICENTER":"279.1185","MEAN_ANOMALY":"96.7284"},{"PERIOD":"96.107","CLASSIFICATION_TYPE":"U","SITE":"AFWTR","DECAY_DATE":null,"MEAN_ANOMALY":"87.7793","ARG_OF_PERICENTER":"277.5532","TIME_SYSTEM":"UTC","PERIAPSIS":"569.794","TLE_LINE2":"2 49141  70.0008  47.8314 0003259 277.5532  87.7793 14.98329743  3580","TLE_LINE1":"1 49141U 21082M   22056.91667824  .00046810  00000-0  39047-2 0  9994","ECCENTRICITY":"0.00032590","OBJECT_NAME":"STARLINK-3093","REF_FRAME":"TEME","LAUNCH_DATE":"2021-09-14","RA_OF_ASC_NODE":"47.8314","NORAD_CAT_ID":"49141","RCS_SIZE":"LARGE","SEMIMAJOR_AXIS":"6950.194","MEAN_MOTION_DOT":"0.00046810","INCLINATION":"70.0008","MEAN_MOTION_DDOT":"0.0000000000000","APOAPSIS":"574.324","FILE":"3323947","ELEMENT_SET_NO":"999","CENTER_NAME":"EARTH","GP_ID":"197033820","OBJECT_ID":"2021-082M","EPOCH":"2022-02-25T22:00:00.999936","REV_AT_EPOCH":"358","EPHEMERIS_TYPE":"0","COUNTRY_CODE":"US","MEAN_MOTION":"14.98329743","BSTAR":"0.00390470000000","MEAN_ELEMENT_THEORY":"SGP4","OBJECT_TYPE":"PAYLOAD"},{"TIME_SYSTEM":"UTC","TLE_LINE1":"1 49142U 21082N   22056.91667824  .00046496  00000-0  38915-3 0  9999","PERIAPSIS":"357.146","TLE_LINE2":"2 49142  69.9999  23.6517 0003683 277.4220 100.5596 15.69745309  3694","SITE":"AFWTR","CLASSIFICATION_TYPE":"U","PERIOD":"91.735","MEAN_ANOMALY":"100.5596","ARG_OF_PERICENTER":"277.4220","DECAY_DATE":null,"GP_ID":"197034070","EPOCH":"2022-02-25T22:00:00.999936","OBJECT_ID":"2021-082N","CENTER_NAME":"EARTH","MEAN_MOTION":"15.69745309","OBJECT_TYPE":"PAYLOAD","MEAN_ELEMENT_THEORY":"SGP4","BSTAR":"0.00038915000000","EPHEMERIS_TYPE":"0","COUNTRY_CODE":"US","REV_AT_EPOCH":"369","RA_OF_ASC_NODE":"23.6517","LAUNCH_DATE":"2021-09-14","NORAD_CAT_ID":"49142","OBJECT_NAME":"STARLINK-3042","ECCENTRICITY":"0.00036830","REF_FRAME":"TEME","FILE":"3323947","APOAPSIS":"362.109","ELEMENT_SET_NO":"999","INCLINATION":"69.9999","MEAN_MOTION_DOT":"0.00046496","RCS_SIZE":"LARGE","SEMIMAJOR_AXIS":"6737.763","MEAN_MOTION_DDOT":"0.0000000000000"},{"MEAN_MOTION":"15.18335745","MEAN_ELEMENT_THEORY":"SGP4","OBJECT_TYPE":"PAYLOAD","BSTAR":"-0.03452400000000","EPHEMERIS_TYPE":"0","COUNTRY_CODE":"US","REV_AT_EPOCH":"364","GP_ID":"197034317","EPOCH":"2022-02-25T22:00:00.999936","OBJECT_ID":"2021-082P","CENTER_NAME":"EARTH","FILE":"3323947","APOAPSIS":"513.094","ELEMENT_SET_NO":"999","MEAN_MOTION_DOT":"-0.00658737","INCLINATION":"70.0001","RCS_SIZE":"LARGE","SEMIMAJOR_AXIS":"6889.007","MEAN_MOTION_DDOT":"0.0000000000000","RA_OF_ASC_NODE":"27.4437","LAUNCH_DATE":"2021-09-14","NORAD_CAT_ID":"49143","ECCENTRICITY":"0.00032250","OBJECT_NAME":"STARLINK-3109","REF_FRAME":"TEME","TLE_LINE1":"1 49143U 21082P   22056.91667824 -.00658737  00000-0 -34524-1 0  9999","PERIAPSIS":"508.650","TLE_LINE2":"2 49143  70.0001  27.4437 0003225 281.1596 308.5034 15.18335745  3640","TIME_SYSTEM":"UTC","MEAN_ANOMALY":"308.5034","ARG_OF_PERICENTER":"281.1596","DECAY_DATE":null,"SITE":"AFWTR","CLASSIFICATION_TYPE":"U","PERIOD":"94.841"},{"DECAY_DATE":null,"MEAN_ANOMALY":"109.5322","ARG_OF_PERICENTER":"281.6072","PERIOD":"96.108","SITE":"AFWTR","CLASSIFICATION_TYPE":"U","PERIAPSIS":"569.752","TLE_LINE2":"2 49144  70.0016  47.8358 0003370 281.6072 109.5322 14.98318164  3585","TLE_LINE1":"1 49144U 21082Q   22056.91667824  .00047355  00000-0  39509-2 0  9995","TIME_SYSTEM":"UTC","INCLINATION":"70.0016","MEAN_MOTION_DOT":"0.00047355","RCS_SIZE":"LARGE","SEMIMAJOR_AXIS":"6950.229","MEAN_MOTION_DDOT":"0.0000000000000","APOAPSIS":"574.437","FILE":"3323947","ELEMENT_SET_NO":"999","OBJECT_NAME":"STARLINK-3100","ECCENTRICITY":"0.00033700","REF_FRAME":"TEME","LAUNCH_DATE":"2021-09-14","RA_OF_ASC_NODE":"47.8358","NORAD_CAT_ID":"49144","EPHEMERIS_TYPE":"0","COUNTRY_CODE":"US","REV_AT_EPOCH":"358","MEAN_MOTION":"14.98318164","MEAN_ELEMENT_THEORY":"SGP4","OBJECT_TYPE":"PAYLOAD","BSTAR":"0.00395090000000","CENTER_NAME":"EARTH","GP_ID":"197035072","EPOCH":"2022-02-25T22:00:00.999936","OBJECT_ID":"2021-082Q"},{"MEAN_MOTION":"15.69726297","BSTAR":"0.00037577000000","OBJECT_TYPE":"PAYLOAD","MEAN_ELEMENT_THEORY":"SGP4","REV_AT_EPOCH":"369","COUNTRY_CODE":"US","EPHEMERIS_TYPE":"0","GP_ID":"197033321","OBJECT_ID":"2021-082R","EPOCH":"2022-02-25T22:00:00.999936","CENTER_NAME":"EARTH","APOAPSIS":"362.185","FILE":"3323947","ELEMENT_SET_NO":"999","RCS_SIZE":"LARGE","SEMIMAJOR_AXIS":"6737.817","MEAN_MOTION_DOT":"0.00044846","INCLINATION":"70.0005","MEAN_MOTION_DDOT":"0.0000000000000","LAUNCH_DATE":"2021-09-14","RA_OF_ASC_NODE":"23.6435","NORAD_CAT_ID":"49145","ECCENTRICITY":"0.00037140","OBJECT_NAME":"STARLINK-3119","REF_FRAME":"TEME","TLE_LINE1":"1 49145U 21082R   22056.91667824  .00044846  00000-0  37577-3 0  9992","PERIAPSIS":"357.180","TLE_LINE2":"2 49145  70.0005  23.6435 0003714 275.3809 113.2401 15.69726297  3693","TIME_SYSTEM":"UTC","MEAN_ANOMALY":"113.2401","ARG_OF_PERICENTER":"275.3809","DECAY_DATE":null,"CLASSIFICATION_TYPE":"U","SITE":"AFWTR","PERIOD":"91.736"},{"ECCENTRICITY":"0.00033160","OBJECT_NAME":"STARLINK-3116","REF_FRAME":"TEME","RA_OF_ASC_NODE":"27.4439","LAUNCH_DATE":"2021-09-14","NORAD_CAT_ID":"49146","MEAN_MOTION_DOT":"-0.00658674","INCLINATION":"70.0001","SEMIMAJOR_AXIS":"6888.750","RCS_SIZE":"LARGE","MEAN_MOTION_DDOT":"0.0000000000000","FILE":"3323947","APOAPSIS":"512.899","ELEMENT_SET_NO":"999","CENTER_NAME":"EARTH","GP_ID":"197033571","EPOCH":"2022-02-25T22:00:00.999936","OBJECT_ID":"2021-082S","COUNTRY_CODE":"US","EPHEMERIS_TYPE":"0","REV_AT_EPOCH":"364","MEAN_MOTION":"15.18420701","OBJECT_TYPE":"PAYLOAD","MEAN_ELEMENT_THEORY":"SGP4","BSTAR":"-0.03443500000000","PERIOD":"94.835","SITE":"AFWTR","CLASSIFICATION_TYPE":"U","DECAY_DATE":null,"MEAN_ANOMALY":"322.3528","ARG_OF_PERICENTER":"284.8812","TIME_SYSTEM":"UTC","PERIAPSIS":"508.331","TLE_LINE2":"2 49146  70.0001  27.4439 0003316 284.8812 322.3528 15.18420701  3646","TLE_LINE1":"1 49146U 21082S   22056.91667824 -.00658674  00000-0 -34435-1 0  9993"},{"PERIOD":"91.733","CLASSIFICATION_TYPE":"U","SITE":"AFWTR","DECAY_DATE":null,"MEAN_ANOMALY":"104.6046","ARG_OF_PERICENTER":"277.6415","TIME_SYSTEM":"UTC","PERIAPSIS":"357.090","TLE_LINE2":"2 49147  70.0003  23.6503 0003624 277.6415 104.6046 15.69778711  3694","TLE_LINE1":"1 49147U 21082T   22056.91667824  .00026327  00000-0  22134-3 0  9991","OBJECT_NAME":"STARLINK-3071","ECCENTRICITY":"0.00036240","REF_FRAME":"TEME","RA_OF_ASC_NODE":"23.6503","LAUNCH_DATE":"2021-09-14","NORAD_CAT_ID":"49147","SEMIMAJOR_AXIS":"6737.667","RCS_SIZE":"LARGE","MEAN_MOTION_DOT":"0.00026327","INCLINATION":"70.0003","MEAN_MOTION_DDOT":"0.0000000000000","FILE":"3323947","APOAPSIS":"361.974","ELEMENT_SET_NO":"999","CENTER_NAME":"EARTH","GP_ID":"197034817","OBJECT_ID":"2021-082T","EPOCH":"2022-02-25T22:00:00.999936","REV_AT_EPOCH":"369","COUNTRY_CODE":"US","EPHEMERIS_TYPE":"0","MEAN_MOTION":"15.69778711","BSTAR":"0.00022134000000","OBJECT_TYPE":"PAYLOAD","MEAN_ELEMENT_THEORY":"SGP4"},{"GP_ID":"197034573","EPOCH":"2022-02-25T22:00:00.999936","OBJECT_ID":"2021-082U","CENTER_NAME":"EARTH","MEAN_MOTION":"15.18505659","MEAN_ELEMENT_THEORY":"SGP4","OBJECT_TYPE":"PAYLOAD","BSTAR":"-0.03435000000000","COUNTRY_CODE":"US","EPHEMERIS_TYPE":"0","REV_AT_EPOCH":"364","RA_OF_ASC_NODE":"27.4440","LAUNCH_DATE":"2021-09-14","NORAD_CAT_ID":"49148","ECCENTRICITY":"0.00033540","OBJECT_NAME":"STARLINK-3048","REF_FRAME":"TEME","APOAPSIS":"512.669","FILE":"3323947","ELEMENT_SET_NO":"999","INCLINATION":"70.0001","MEAN_MOTION_DOT":"-0.00658671","RCS_SIZE":"LARGE","SEMIMAJOR_AXIS":"6888.493","MEAN_MOTION_DDOT":"0.0000000000000","TIME_SYSTEM":"UTC","TLE_LINE1":"1 49148U 21082U   22056.91667824 -.00658671  00000-0 -34350-1 0  9998","PERIAPSIS":"508.048","TLE_LINE2":"2 49148  70.0001  27.4440 0003354 285.2485 339.5380 15.18505659  3645","SITE":"AFWTR","CLASSIFICATION_TYPE":"U","PERIOD":"94.830","MEAN_ANOMALY":"339.5380","ARG_OF_PERICENTER":"285.2485","DECAY_DATE":null}];
